[{"OBJECT_NAME":"STARLINK-3644","OBJECT_ID":"2022-025AH","EPOCH":"2026-03-09T07:36:50.280768","MEAN_MOTION":15.08844044,"ECCENTRICITY":0.00014332,"INCLINATION":53.2181,"RA_OF_ASC_NODE":40.793,"ARG_OF_PERICENTER":87.4978,"MEAN_ANOMALY":272.6179,"EPHEMERIS_TYPE":0,"CLASSIFICATION_TYPE":"U","NORAD_CAT_ID":51987,"ELEMENT_SET_NO":999,"REV_AT_EPOCH":22100,"BSTAR":-1.5496132e-5,"MEAN_MOTION_DOT":-5.35e-6,"MEAN_MOTION_DDOT":0},{"OBJECT_NAME":"LEMUR-2-STELLA","OBJECT_ID":"2024-149BT","EPOCH":"2026-03-09T17:26:15.951264","MEAN_MOTION":15.09464064,"ECCENTRICITY":0.0001299,"INCLINATION":97.6764,"RA_OF_ASC_NODE":150.9122,"ARG_OF_PERICENTER":95.1117,"MEAN_ANOMALY":265.026,"EPHEMERIS_TYPE":0,"CLASSIFICATION_TYPE":"U","NORAD_CAT_ID":60533,"ELEMENT_SET_NO":999,"REV_AT_EPOCH":8548,"BSTAR":0.00085776432,"MEAN_MOTION_DOT":0.00013685,"MEAN_MOTION_DDOT":0}]
